{
  "norad_id": 59282,
  "name": "YUNHAI-2 02C",
  "history": [
    {
      "epoch": "2026-04-10T07:30:04.702752Z",
      "apogee_km": 803.4272057872222,
      "perigee_km": 793.8212544159569,
      "latitude_deg": -3.0264576540396025e-05,
      "longitude_deg": 118.98538160880453,
      "height_km": 797.9271837041944,
      "semi_major_axis_km": 7176.76123010159,
      "eccentricity": 0.00066924,
      "inclination_deg": 50.0085,
      "raan_deg": 70.0532,
      "arg_perigee_deg": 284.8738,
      "mean_anomaly_deg": 75.1435,
      "mean_motion_rev_day": 14.27940185
    },
    {
      "epoch": "2026-04-11T20:27:08.828928Z",
      "apogee_km": 803.4203224856446,
      "perigee_km": 793.8249948220255,
      "latitude_deg": 6.80904991935525e-05,
      "longitude_deg": -83.32356134121761,
      "height_km": 797.4931370507456,
      "semi_major_axis_km": 7176.759658653835,
      "eccentricity": 0.0006685,
      "inclination_deg": 50.0088,
      "raan_deg": 63.5289,
      "arg_perigee_deg": 290.3112,
      "mean_anomaly_deg": 69.7085,
      "mean_motion_rev_day": 14.27940654
    },
    {
      "epoch": "2026-04-13T06:02:39.795936Z",
      "apogee_km": 803.4039471068027,
      "perigee_km": 793.8380463729482,
      "latitude_deg": 9.284197554240093e-06,
      "longitude_deg": 125.4866880391645,
      "height_km": 797.1148001485374,
      "semi_major_axis_km": 7176.757996739875,
      "eccentricity": 0.00066645,
      "inclination_deg": 50.0091,
      "raan_deg": 57.5978,
      "arg_perigee_deg": 295.2734,
      "mean_anomaly_deg": 64.749,
      "mean_motion_rev_day": 14.2794115
    },
    {
      "epoch": "2026-04-14T20:40:30.345312Z",
      "apogee_km": 803.3946981991767,
      "perigee_km": 793.8438709356742,
      "latitude_deg": 5.247322846395161e-05,
      "longitude_deg": -102.381103395182,
      "height_km": 796.7008420404558,
      "semi_major_axis_km": 7176.756284567426,
      "eccentricity": 0.0006654,
      "inclination_deg": 50.0094,
      "raan_deg": 50.7771,
      "arg_perigee_deg": 300.9259,
      "mean_anomaly_deg": 59.1002,
      "mean_motion_rev_day": 14.27941661
    },
    {
      "epoch": "2026-04-15T20:11:21.972192Z",
      "apogee_km": 803.3911166908165,
      "perigee_km": 793.846031777085,
      "latitude_deg": 3.99374073140038e-05,
      "longitude_deg": -100.21362362349632,
      "height_km": 796.4590948947481,
      "semi_major_axis_km": 7176.755574233951,
      "eccentricity": 0.000665,
      "inclination_deg": 50.0095,
      "raan_deg": 46.6254,
      "arg_perigee_deg": 304.3837,
      "mean_anomaly_deg": 55.6449,
      "mean_motion_rev_day": 14.27941873
    },
    {
      "epoch": "2026-04-16T21:23:00.149280Z",
      "apogee_km": 803.3808514627372,
      "perigee_km": 793.8544273543857,
      "latitude_deg": 5.381668815093741e-07,
      "longitude_deg": -123.60570396550848,
      "height_km": 796.2129027341977,
      "semi_major_axis_km": 7176.754639408561,
      "eccentricity": 0.0006637,
      "inclination_deg": 50.0097,
      "raan_deg": 42.1771,
      "arg_perigee_deg": 308.1203,
      "mean_anomaly_deg": 51.9113,
      "mean_motion_rev_day": 14.27942152
    },
    {
      "epoch": "2026-04-17T22:34:38.327232Z",
      "apogee_km": 803.3834728607508,
      "perigee_km": 793.850016721246,
      "latitude_deg": -4.6453978638522525e-05,
      "longitude_deg": -146.99759495952512,
      "height_km": 795.9772134907355,
      "semi_major_axis_km": 7176.753744790998,
      "eccentricity": 0.00066419,
      "inclination_deg": 50.0099,
      "raan_deg": 37.729,
      "arg_perigee_deg": 311.7668,
      "mean_anomaly_deg": 48.2678,
      "mean_motion_rev_day": 14.27942419
    },
    {
      "epoch": "2026-04-18T20:24:43.422912Z",
      "apogee_km": 803.3786182987606,
      "perigee_km": 793.8536315513611,
      "latitude_deg": -5.667721533243806e-05,
      "longitude_deg": -119.27065669715505,
      "height_km": 795.7827893991323,
      "semi_major_axis_km": 7176.753124925061,
      "eccentricity": 0.0006636,
      "inclination_deg": 50.01,
      "raan_deg": 33.8739,
      "arg_perigee_deg": 315.021,
      "mean_anomaly_deg": 45.0166,
      "mean_motion_rev_day": 14.27942604
    },
    {
      "epoch": "2026-04-19T19:55:35.054976Z",
      "apogee_km": 803.3733566854244,
      "perigee_km": 793.8569833080082,
      "latitude_deg": 1.912300757462101e-05,
      "longitude_deg": -117.1031278201919,
      "height_km": 795.5870124409937,
      "semi_major_axis_km": 7176.752169996716,
      "eccentricity": 0.000663,
      "inclination_deg": 50.0101,
      "raan_deg": 29.7222,
      "arg_perigee_deg": 318.4972,
      "mean_anomaly_deg": 41.5439,
      "mean_motion_rev_day": 14.27942889
    },
    {
      "epoch": "2026-04-20T14:24:07.055424Z",
      "apogee_km": 803.3704982044956,
      "perigee_km": 793.858575252746,
      "latitude_deg": -6.440688704319262e-05,
      "longitude_deg": -38.257298363006875,
      "height_km": 795.4407765645095,
      "semi_major_axis_km": 7176.7515367286205,
      "eccentricity": 0.00066269,
      "inclination_deg": 50.0103,
      "raan_deg": 26.4602,
      "arg_perigee_deg": 321.2485,
      "mean_anomaly_deg": 38.7953,
      "mean_motion_rev_day": 14.27943078
    },
    {
      "epoch": "2026-04-21T20:38:04.833024Z",
      "apogee_km": 803.3611500029574,
      "perigee_km": 793.8648743868216,
      "latitude_deg": 3.815561492508675e-05,
      "longitude_deg": -138.3274694544725,
      "height_km": 795.2272404904891,
      "semi_major_axis_km": 7176.75001219489,
      "eccentricity": 0.0006616,
      "inclination_deg": 50.0104,
      "raan_deg": 21.1223,
      "arg_perigee_deg": 325.6653,
      "mean_anomaly_deg": 34.3834,
      "mean_motion_rev_day": 14.27943533
    }
  ]
}